{
  "norad_id": 63302,
  "name": "KINEIS-4D",
  "history": [
    {
      "epoch": "2026-03-28T02:54:36.386208",
      "apogee_km": 654.946253135593,
      "perigee_km": 652.3809116471248,
      "latitude_deg": -84.2806602108202,
      "longitude_deg": 161.8404291199986,
      "semi_major_axis_km": 7031.800582391358,
      "eccentricity": 0.00018241,
      "inclination_deg": 97.9779,
      "raan_deg": 213.2545,
      "arg_perigee_deg": 176.3612,
      "mean_anomaly_deg": 183.7609,
      "mean_motion_rev_day": 14.7232248
    }
  ]
}